281P/MOSS,e,4.7176,87.1671,27.1121,4.888300,0.0911942,0.17392999,94.2980,12/05.0/2025,2000,g 11.0,4.0
# From MPEC 2025-W75
283P/Spacewatch,e,14.4709,161.1268,22.1473,4.130831,0.1173945,0.48530685,181.7313,12/05.0/2025,2000,g 16.0,2.0
# From MPEC 2025-W75
284P/McNaught,e,11.8518,144.2603,202.4453,3.679506,0.1396432,0.37415119,215.9382,12/05.0/2025,2000,g 13.0,4.0
# From MPEC 2025-W75
285P/LINEAR,e,25.0301,185.5172,178.3756,4.505022,0.1030763,0.61791927,109.1012,12/05.0/2025,2000,g 15.0,4.0
# From MPEC 2025-W75
286P/Christensen,e,17.2463,283.5814,23.5497,4.060748,0.1204467,0.43560245,156.6696,12/05.0/2025,2000,g 14.0,4.0
# From MPEC 2025-W75
287P/Christensen,e,16.4216,138.3673,191.5713,4.204022,0.1143422,0.27202512,100.0778,12/05.0/2025,2000,g 13.5,4.0
# From MPC133426
288P/,e,3.2382,83.1071,280.2561,3.051018,0.1849426,0.19945070,254.3928,12/05.0/2025,2000,g 16.0,2.0
# From MPEC 2025-W75
289P/Blanpain,e,5.9002,68.8910,9.8786,3.043595,0.1856195,0.68641645,43.5628,12/05.0/2025,2000,g 19.0,4.0
# From MPEC 2025-W75
290P/Jager,e,20.0125,302.6456,181.8998,6.213315,0.0636384,0.62803999,275.6462,12/05.0/2025,2000,g 10.5,4.0
# From MPEC 2025-W75
291P/NEAT,e,6.3093,237.6658,173.5831,4.535694,0.1020325,0.43368180,96.5350,12/05.0/2025,2000,g 13.0,4.0
# From MPEC 2025-W75
292P/Li,e,24.3221,90.8953,319.6708,6.095009,0.0655002,0.58975710,282.3831,12/05.0/2025,2000,g 12.5,4.0
# From MPEC 2025-W75
293P/Spacewatch,e,9.0617,78.3914,40.9816,3.636949,0.1421014,0.41965240,257.1117,12/05.0/2025,2000,g 14.5,4.0
# From MPEC 2025-W75
294P/LINEAR,e,17.7431,309.5991,237.5902,3.190543,0.1729446,0.60099063,20.0274,12/05.0/2025,2000,g 15.5,4.0
# From MPEC 2025-W75
295P/LINEAR,e,21.0874,7.3780,73.0626,5.297064,0.0808446,0.61757867,341.4253,12/05.0/2025,2000,g 12.0,4.0
# From MPEC 2025-W75
296P/Garradd,e,25.3506,263.4888,350.5044,3.464889,0.1528164,0.48694757,288.1198,12/05.0/2025,2000,g 14.0,4.0
# From MPEC 2025-W75
297P/Beshore,e,11.3121,90.0398,144.9013,3.572267,0.1459782,0.27859751,259.1858,12/05.0/2025,2000,g 15.0,4.0
# From MPEC 2025-W75
298P/Christensen,e,7.8730,52.7822,100.6360,3.587807,0.1450308,0.38709138,277.8170,12/05.0/2025,2000,g 15.0,4.0
# From MPEC 2025-W75
299P/Catalina-PANSTARRS,e,10.4687,271.5782,323.5768,4.387958,0.1072285,0.28097217,62.6378,12/05.0/2025,2000,g 11.5,4.0
# From MPEC 2025-W75
300P/Catalina,e,5.6763,95.6183,222.8745,2.695870,0.2226669,0.69242193,215.7580,12/05.0/2025,2000,g 16.0,4.0
# From MPEC 2025-W75
301P/LINEAR-NEAT,e,10.3255,351.1200,193.3585,5.753741,0.0714132,0.58644105,296.1714,12/05.0/2025,2000,g 13.0,4.0
# From MPEC 2025-X35
302P/Lemmon-PANSTARRS,e,6.0357,121.7171,208.6052,4.265948,0.1118615,0.22910634,30.2833,12/05.0/2025,2000,g 12.5,4.0
# From MPEC 2025-W75
303P/NEAT,e,7.0165,347.9062,357.0578,5.038433,0.0871487,0.51010441,353.2958,12/05.0/2025,2000,g 13.5,4.0
# From MPEC 2025-W75
304P/Ory,e,2.6065,58.9016,335.3222,3.149050,0.1763741,0.60077652,341.7978,12/05.0/2025,2000,g 16.5,4.0
# From MPEC 2025-W75
305P/Skiff,e,11.6699,240.0804,147.3783,4.632591,0.0988480,0.69402826,37.8487,12/05.0/2025,2000,g 18.0,4.0
# From MPEC 2025-X35
306P/LINEAR,e,8.3017,341.3384,0.9166,3.124039,0.1784963,0.59251498,22.3748,12/05.0/2025,2000,g 19.0,4.0
# From MPEC 2025-W75
307P/LINEAR,e,4.4309,158.0553,222.3062,5.791071,0.0707238,0.67494211,282.4070,12/05.0/2025,2000,g 15.0,4.0
# From MPEC 2025-W75
308P/Lagerkvist-Carsenty,e,4.8535,63.0377,333.8256,6.602443,0.0580961,0.36383338,224.0699,12/05.0/2025,2000,g 13.0,2.0
# From MPEC 2025-W75
309P/LINEAR,e,17.0170,10.1386,49.9338,4.375149,0.1076998,0.61811113,66.3538,12/05.0/2025,2000,g 15.0,4.0
# From MPEC 2025-W75
310P/Hill,e,13.1197,8.8842,31.5140,4.180711,0.1152999,0.42192416,89.2430,12/05.0/2025,2000,g 13.5,4.0
# From MPEC 2025-W75
311P/PANSTARRS,e,4.9713,279.1681,144.3195,2.188854,0.3043540,0.11540185,213.9789,12/05.0/2025,2000,g 17.0,4.0
# From MPEC 2025-W75
312P/NEAT,e,19.7454,144.6275,207.6847,3.472967,0.1522836,0.42654742,289.1083,12/05.0/2025,2000,g 16.0,4.0
# From MPEC 2025-W75
313P/Gibbs,e,10.9811,105.9254,254.9984,3.162564,0.1752448,0.23429691,0.3882,12/05.0/2025,2000,g 15.0,4.0
# From MPEC 2025-W75
314P/Montani,e,3.9918,267.6215,213.8905,7.248391,0.0505059,0.41876815,168.5753,12/05.0/2025,2000,g  9.5,4.0
# From MPEC 2025-WD0
315P/LONEOS,e,17.7371,68.6237,65.9624,4.934810,0.0899080,0.52223426,296.0334,12/05.0/2025,2000,g 11.0,4.0
# From MPEC 2025-W75
316P/LONEOS-Christensen,e,9.8660,245.8218,186.4716,4.397968,0.1068627,0.15536790,46.0253,12/05.0/2025,2000,g 13.5,4.0
# From MPEC 2025-W75
317P/WISE,e,11.9747,275.4724,334.8852,2.959909,0.1935471,0.57207751,6.8022,12/05.0/2025,2000,g 17.5,4.0
# From MPEC 2025-W75
318P/McNaught-Hartley,e,17.8726,35.5689,313.3357,7.516613,0.0478267,0.67285704,176.8777,12/05.0/2025,2000,g  8.5,6.0
# From MPEC 2025-W75
319P/Catalina-McNaught,e,15.0987,111.3684,203.5694,3.561829,0.1466204,0.66678506,197.2990,12/05.0/2025,2000,g 15.0,4.0
# From MPEC 2025-W75
320P/McNaught,e,4.9009,295.9476,0.7510,3.096213,0.1809080,0.68498910,322.9459,12/05.0/2025,2000,g 20.5,4.0
# From MPEC 2025-W75
322P/SOHO,e,11.4383,351.4092,57.0010,2.508703,0.2480449,0.97985711,0.0000,08/11.5582/2027,2000,g 19.0,4.0
# From MPEC 2025-W75
323P/SOHO,e,5.2484,323.9523,353.3241,2.463764,0.2548622,0.98372905,0.0000,03/14.2368/2025,2000,g 20.0,4.0
# From MPEC 2025-W75
324P/LaSagra,e,21.3991,270.5690,57.3620,3.097677,0.1807798,0.15274170,303.3112,12/05.0/2025,2000,g 13.0,4.0
# From MPEC 2025-W75
325P/Yang-Gao,e,16.8397,256.8635,344.8744,3.550795,0.1473044,0.58663539,199.3495,12/05.0/2025,2000,g 14.0,4.0
# From MPEC 2025-W75
326P/Hill,e,2.4737,99.7600,277.8180,4.057995,0.1205693,0.32073217,85.4084,12/05.0/2025,2000,g 13.5,4.0
# From MPEC 2025-W75
327P/VanNess,e,36.2246,173.9988,185.0321,3.563285,0.1465305,0.56237479,174.4366,12/05.0/2025,2000,g 16.0,4.0
# From MPEC 2025-W75
328P/LONEOS-Tucker,e,17.6985,341.5007,30.6215,4.186343,0.1150673,0.55330212,56.9724,12/05.0/2025,2000,g 14.5,4.0
# From MPEC 2025-W75
329P/LINEAR-Catalina,e,21.7294,87.6544,343.6518,5.180670,0.0835844,0.67881850,304.8558,12/05.0/2025,2000,g 13.5,4.0
# From MPEC 2025-W75
330P/Catalina,e,15.7421,293.0853,188.8535,6.614125,0.0579423,0.55077482,195.9281,12/05.0/2025,2000,g 12.0,4.0
# From MPEC 2025-WD0
331P/Gibbs,e,9.7411,216.7418,185.7656,3.002773,0.1894176,0.04142167,356.1356,12/05.0/2025,2000,g 12.0,4.0
# From MPEC 2016-K18
332P/Ikeya-Murakami,e,9.3866,3.7555,152.3036,3.085920,0.1818139,0.48998182,285.3394,12/05.0/2025,2000,g 18.0,4.0
# From MPEC 2016-K18
332P-A/Ikeya-Murakami,e,9.3862,152.3176,3.7428,3.085895,0.1818161,0.48998976,285.3382,12/05.0/2025,2000,g 18.0,4.0
# From MPEC 2016-EI8
332P-B/Ikeya-Murakami,e,9.3805,3.8028,152.3711,3.082329,0.1821317,0.48970701,359.9699,03/17.0/2016,2000,g 19.0,4.0
# From MPEC 2016-K18
332P-C/Ikeya-Murakami,e,9.3852,152.3089,3.7432,3.085861,0.1818191,0.48999526,285.3570,12/05.0/2025,2000,g 16.5,4.0
# From MPEC 2016-ED0
332P-D/Ikeya-Murakami,e,9.3761,3.7923,152.4393,3.081138,0.1822373,0.48977814,359.9486,03/17.0/2016,2000,g 19.0,4.0
# From MPEC 2016-ED0
332P-G/Ikeya-Murakami,e,9.2523,3.6955,154.4000,3.050519,0.1849880,0.49200362,359.9006,03/19.0/2016,2000,g 19.0,4.0
# From MPC100285
332P-H/Ikeya-Murakami,e,9.3858,152.3095,3.7430,3.086040,0.1818033,0.49003141,285.2665,12/05.0/2025,2000,g 19.0,4.0
# From MPEC 2016-ED0
332P-I/Ikeya-Murakami,e,9.3791,3.8048,152.3297,3.081767,0.1821815,0.48955490,359.9360,03/17.0/2016,2000,g 20.5,2.0
# From MPEC 2025-W75
333P/LINEAR,e,132.0239,115.7054,26.0340,4.221665,0.1136262,0.73630266,42.1202,12/05.0/2025,2000,g 15.0,4.0
# From MPEC 2025-W75
334P/NEAT,e,20.3622,90.3034,90.1112,6.822465,0.0553085,0.35235112,171.7088,12/05.0/2025,2000,g 10.5,4.0
# From MPEC 2025-W75
335P/Gibbs,e,7.2994,330.7859,162.3351,3.576982,0.1456897,0.54700746,176.3088,12/05.0/2025,2000,g 17.0,4.0
# From MPEC 2025-W75
336P/McNaught,e,17.9337,298.2173,308.9776,5.023615,0.0875346,0.44917187,282.1694,12/05.0/2025,2000,g 13.5,4.0
# From MPEC 2025-W75
337P/WISE,e,17.1405,101.9785,166.3927,3.381903,0.1584756,0.46536128,202.2002,12/05.0/2025,2000,g 17.0,4.0
# From MPEC 2025-W75
338P/McNaught,e,25.3831,9.6768,4.6314,3.894080,0.1282617,0.41287249,62.6930,12/05.0/2025,2000,g 12.0,4.0
# From MPEC 2025-W75
339P/Gibbs,e,5.7380,172.7132,27.4065,3.698025,0.1385956,0.63599025,114.6029,12/05.0/2025,2000,g 17.0,4.0
# From MPEC 2025-W75
340P/Boattini,e,2.0788,291.5979,36.1038,4.245646,0.1126648,0.27971234,11.0208,12/05.0/2025,2000,g 13.0,4.0
# From MPEC 2025-W75
341P/Gibbs,e,3.7965,29.9522,312.3715,4.284213,0.1111469,0.41493634,25.1493,12/05.0/2025,2000,g 12.5,4.0
# From MPEC 2025-W75
343P/NEAT-LONEOS,e,5.5971,257.0563,137.6051,5.458369,0.0772876,0.58458574,249.3922,12/05.0/2025,2000,g 14.0,4.0
# From MPEC 2025-W75
344P/Read,e,3.4995,273.1002,140.6519,4.853673,0.0921718,0.42364561,304.9742,12/05.0/2025,2000,g 13.0,4.0
# From MPEC 2025-W75
345P/LINEAR,e,2.7279,154.4844,196.9583,4.035335,0.1215863,0.22155523,55.9440,12/05.0/2025,2000,g 12.0,4.0
# From MPEC 2025-W75
346P/Catalina,e,22.2193,102.4572,336.1029,4.466502,0.1044126,0.50385794,335.0129,12/05.0/2025,2000,g 14.0,4.0
# From MPEC 2025-W75
347P/PANSTARRS,e,11.7652,260.9830,98.0352,3.598491,0.1443855,0.38712661,125.6013,12/05.0/2025,2000,g 15.0,4.0
# From MPEC 2025-W75
348P/PANSTARRS,e,17.7444,312.8883,135.8262,3.151247,0.1761897,0.30752046,244.9077,12/05.0/2025,2000,g 14.0,4.0
# From MPEC 2025-W75
349P/Lemmon,e,5.4897,331.7384,255.7129,3.577376,0.1456657,0.29865878,81.1542,12/05.0/2025,2000,g 14.0,4.0
# From MPEC 2025-W75
350P/McNaught,e,7.3654,65.2961,140.0613,4.081445,0.1195317,0.09485598,347.7556,12/05.0/2025,2000,g 14.0,4.0
# From MPEC 2025-W75
351P/Wiegert-PANSTARRS,e,12.7782,283.3836,352.5377,4.439811,0.1053556,0.29464107,26.7566,12/05.0/2025,2000,g 12.5,4.0
# From MPEC 2025-W75
352P/Skiff,e,20.9983,28.0705,309.3403,6.656837,0.0573855,0.61563930,177.4983,12/05.0/2025,2000,g 11.5,4.0
# From MPEC 2025-W75
353P/McNaught,e,28.4101,121.4571,230.5312,4.170456,0.1157254,0.46966981,335.8816,12/05.0/2025,2000,g 14.5,4.0
